NORAD_CAT_ID,OBJECT_NAME,OBJECT_TYPE,EPOCH,MEAN_MOTION,ECCENTRICITY,INCLINATION,RA_OF_ASC_NODE,ARG_OF_PERICENTER,MEAN_ANOMALY,BSTAR,MEAN_MOTION_DOT,MEAN_MOTION_DDOT,TLE_LINE0,TLE_LINE1,TLE_LINE2,SEMIMAJOR_AXIS,PERIOD,APOGEE,PERIGEE,DECAYED
53031.0,STARLINK-4137,PAYLOAD,2022-07-12 16:00:00,15.88497329,0.0033205999999999,53.2174,354.5747,54.58,179.0279,-0.0040034,-0.01193611,0.00040812,0 STARLINK-4137,1 53031U 22076AX  22193.66667824 -.01193611  40812-3 -40034-2 0  9996,2 53031  53.2174 354.5747 0033206  54.5800 179.0279 15.88497329  1302,6684.632,90.652,328.694,284.3,0.0
53031.0,STARLINK-4137,PAYLOAD,2022-07-13 04:00:00,15.87358935,0.0028165,53.2175,352.0451,56.1427,157.372,-0.0043016,-0.0119461,0.00040447,0 STARLINK-4137,1 53031U 22076AX  22194.16667824 -.01194610  40447-3 -43016-2 0  9999,2 53031  53.2175 352.0451 0028165  56.1427 157.3720 15.87358935  1374,6687.828,90.717,328.529,290.857,0.0
53031.0,STARLINK-4137,PAYLOAD,2022-07-13 14:00:01,15.86380639,0.002455,53.2177,349.9415,54.9834,20.2278,-0.0043203999999999,-0.01134283,0.00036484,0 STARLINK-4137,1 53031U 22076AX  22194.58334491 -.01134283  36484-3 -43204-2 0  9991,2 53031  53.2177 349.9415 0024550  54.9834  20.2278 15.86380639  1307,6690.5769999999975,90.773,328.867,296.017,0.0
53031.0,STARLINK-4137,PAYLOAD,2022-07-13 22:00:00,15.85636311,0.0021543,53.2172,348.2615,53.7504,125.7773,-0.0046304,-0.01045949,0.0,0 STARLINK-4137,1 53031U 22076AX  22194.91667824 -.01045949  00000-0 -46304-2 0  9993,2 53031  53.2172 348.2615 0021543  53.7504 125.7773 15.85636311  1497,6692.670999999999,90.815,328.954,300.118,0.0
53031.0,STARLINK-4137,PAYLOAD,2022-07-14 14:00:01,15.84112088,0.0015109,53.2175,344.9039,53.0378,332.4,-0.00499,-0.01034634,0.0,0 STARLINK-4137,1 53031U 22076AX  22195.58334491 -.01034634  00000-0 -49900-2 0  9992,2 53031  53.2175 344.9039 0015109  53.0378 332.4000 15.84112088  1608,6696.9630000000025,90.903,328.946,308.71,0.0
53031.0,STARLINK-4137,PAYLOAD,2022-07-14 22:00:00,15.83347508,0.0012204,53.2172,343.2296,52.4562,74.5671,-0.0051373,-0.01023485,0.0,0 STARLINK-4137,1 53031U 22076AX  22195.91667824 -.01023485  00000-0 -51373-2 0  9997,2 53031  53.2172 343.2296 0012204  52.4562  74.5671 15.83347508  1304,6699.119000000002,90.947,329.159,312.808,0.0
53031.0,STARLINK-4137,PAYLOAD,2022-07-15 14:00:01,15.81849475,0.0006701,53.2176,339.8833,41.8176,285.6306,-0.005753,-0.01056489,0.0,0 STARLINK-4137,1 53031U 22076AX  22196.58334491 -.01056489  00000-0 -57530-2 0  9993,2 53031  53.2176 339.8833 0006701  41.8176 285.6306 15.81849475  1762,6703.348000000001,91.033,329.704,320.721,0.0
53031.0,STARLINK-4137,PAYLOAD,2022-07-15 22:00:00,15.81073041,0.0004449,53.2171,338.2142,27.1529,39.1474,-0.0057858999999999,-0.01026307,0.0,0 STARLINK-4137,1 53031U 22076AX  22196.91667824 -.01026307  00000-0 -57859-2 0  9999,2 53031  53.2171 338.2142 0004449  27.1529  39.1474 15.81073041  1305,6705.542,91.077,330.39,324.4240000000001,0.0
53031.0,STARLINK-4137,PAYLOAD,2022-07-16 14:00:01,15.79563152,0.000334,53.2174,334.8797,6.0399,255.2128,-0.0063091,-0.01058654,0.0,0 STARLINK-4137,1 53031U 22076AX  22197.58334491 -.01058654  00000-0 -63091-2 0  9999,2 53031  53.2174 334.8797 0003340   6.0399 255.2128 15.79563152  1925,6709.814,91.164,333.921,329.4380000000001,0.0
53031.0,STARLINK-4137,PAYLOAD,2022-07-16 22:00:00,15.78805151,0.0003055,53.2172,333.216,5.8341,351.5262,-0.006538,-0.0105939,0.0,0 STARLINK-4137,1 53031U 22076AX  22197.91667824 -.01059390  00000-0 -65380-2 0  9996,2 53031  53.2172 333.2160 0003055   5.8341 351.5262 15.78805151  1305,6711.962,91.208,335.8769999999999,331.776,0.0
53031.0,STARLINK-4137,PAYLOAD,2022-07-17 06:00:00,15.78042523,0.0003057,53.2174,331.5516,7.8658,84.6934,-0.006743,-0.0105578,0.0,0 STARLINK-4137,1 53031U 22076AX  22198.25001157 -.01055780  00000-0 -67430-2 0  9992,2 53031  53.2174 331.5516 0003057   7.8658  84.6934 15.78042523  2024,6714.124,91.252,338.042,333.9369999999999,0.0
53031.0,STARLINK-4137,PAYLOAD,2022-07-17 14:00:01,15.7728231,0.0003553,53.2176,329.8927,6.1761,180.6655,-0.0069619,-0.01053813,0.0,0 STARLINK-4137,1 53031U 22076AX  22198.58334491 -.01053813  00000-0 -69619-2 0  9994,2 53031  53.2176 329.8927 0003553   6.1761 180.6655 15.77282310  1306,6716.281,91.296,340.533,335.76,0.0
53031.0,STARLINK-4137,PAYLOAD,2022-07-17 22:00:00,15.76527419,0.000346,53.2171,328.2344,4.3008,275.9095,-0.0072515,-0.01060394,0.0,0 STARLINK-4137,1 53031U 22076AX  22198.91667824 -.01060394  00000-0 -72515-2 0  9991,2 53031  53.2171 328.2344 0003460   4.3008 275.9095 15.76527419  1305,6718.425,91.34,342.615,337.966,0.0
53031.0,STARLINK-4137,PAYLOAD,2022-07-18 06:00:00,15.75767253,0.0004313,53.2172,326.5758,317.6433,55.0266,-0.0074963,-0.01060307,0.0,0 STARLINK-4137,1 53031U 22076AX  22199.25001157 -.01060307  00000-0 -74963-2 0  9993,2 53031  53.2172 326.5758 0004313 317.6433  55.0266 15.75767253  2181,6720.5859999999975,91.384,345.349,339.552,0.0
53031.0,STARLINK-4137,PAYLOAD,2022-07-18 14:00:01,15.75010099,0.0004435,53.2173,324.9227,348.4817,115.7314,-0.0077731,-0.01063093,0.0,0 STARLINK-4137,1 53031U 22076AX  22199.58334491 -.01063093  00000-0 -77731-2 0  9990,2 53031  53.2173 324.9227 0004435 348.4817 115.7314 15.75010099  1308,6722.739000000001,91.428,347.586,341.6230000000001,0.0
53031.0,STARLINK-4137,PAYLOAD,2022-07-18 22:00:00,15.7419753,0.0004659,53.2172,323.2697,356.5509,198.3065,-0.0070765,-0.00930989,0.0,0 STARLINK-4137,1 53031U 22076AX  22199.91667824 -.00930989  00000-0 -70765-2 0  9992,2 53031  53.2172 323.2697 0004659 356.5509 198.3065 15.74197530  2289,6725.053000000001,91.475,350.051,343.784,0.0
53031.0,STARLINK-4137,PAYLOAD,2022-07-19 06:00:00,15.73401541,0.0001075,53.2174,321.6166,113.1057,171.4768,-0.002087,-0.00286226,0.0,0 STARLINK-4137,1 53031U 22076AX  22200.25001157 -.00286226  00000-0 -20870-2 0  9993,2 53031  53.2174 321.6166 0001075 113.1057 171.4768 15.73401541  2346,6727.321,91.521,349.909,348.462,0.0
53031.0,STARLINK-4137,PAYLOAD,2022-07-19 14:00:01,15.73205012,0.000138,53.2175,319.9688,51.7855,321.838,-7.6838e-06,-1.698e-05,0.0,0 STARLINK-4137,1 53031U 22076AX  22200.58334491 -.00001698  00000-0 -76838-5 0  9995,2 53031  53.2175 319.9688 0001380  51.7855 321.8380 15.73205012  2399,6727.880999999999,91.533,350.6740000000001,348.81699999999995,0.0
53031.0,STARLINK-4137,PAYLOAD,2022-07-19 22:00:00,15.73205686,0.0001341,53.2172,318.3191,51.2427,51.3152,-1.6297e-05,-2.907e-05,0.0,0 STARLINK-4137,1 53031U 22076AX  22200.91667824 -.00002907  00000-0 -16297-4 0  9997,2 53031  53.2172 318.3191 0001341  51.2427  51.3152 15.73205686  1304,6727.879,91.533,350.646,348.842,0.0
53031.0,STARLINK-4137,PAYLOAD,2022-07-20 04:00:00,15.73229145,0.0001131,53.219,317.0863,60.9802,18.4522,-4.535399999999999e-05,-6.987e-05,0.0,0 STARLINK-4137,1 53031U 22076AX  22201.16667824 -.00006987  00000-0 -45354-4 0  9993,2 53031  53.2190 317.0863 0001131  60.9802  18.4522 15.73229145  2488,6727.812,91.531,350.43800000000016,348.916,0.0
53031.0,STARLINK-4137,PAYLOAD,2022-07-20 14:00:01,15.73189531,0.000134,53.2191,315.0261,52.50899999999999,228.1333,-0.0001865,-0.00026699,0.0,0 STARLINK-4137,1 53031U 22076AX  22201.58334491 -.00026699  00000-0 -18650-3 0  9990,2 53031  53.2191 315.0261 0001340  52.5090 228.1333 15.73189531  1301,6727.925,91.534,350.69199999999995,348.88800000000015,0.0
53031.0,STARLINK-4137,PAYLOAD,2022-07-20 22:00:01,15.73156336,0.000126,53.2191,313.3764,46.4497,323.1379,-0.00023684,-0.00033663,0.0,0 STARLINK-4137,1 53031U 22076AX  22201.91668981 -.00033663  00000-0 -23684-3 0  9993,2 53031  53.2191 313.3764 0001260  46.4497 323.1379 15.73156336  2601,6728.02,91.536,350.732,349.037,0.0
53031.0,STARLINK-4137,PAYLOAD,2022-07-21 08:00:01,15.73204006,0.0001551,53.2177,311.3071,64.0647,146.4802,1.3177e-05,1.23e-05,0.0,0 STARLINK-4137,1 53031U 22076AX  22202.33334491  .00001230  00000-0  13177-4 0  9996,2 53031  53.2177 311.3071 0001551  64.0647 146.4802 15.73204006  2661,6727.884,91.533,350.792,348.705,0.0
53031.0,STARLINK-4137,PAYLOAD,2022-07-21 14:00:01,15.7317905,0.0001736,53.219,310.0779,55.4091,132.0397,0.0002328,0.00032148,0.0,0 STARLINK-4137,1 53031U 22076AX  22202.58335648  .00032148  00000-0  23280-3 0  9995,2 53031  53.2190 310.0779 0001736  55.4091 132.0397 15.73179050  1309,6727.955,91.534,350.98800000000006,348.652,0.0
53031.0,STARLINK-4137,PAYLOAD,2022-07-21 22:00:00,15.73233593,0.0001594,53.2184,308.428,52.94,223.3541,-0.00062628,-0.00087732,0.0,0 STARLINK-4137,1 53031U 22076AX  22202.91667824 -.00087732  00000-0 -62628-3 0  9996,2 53031  53.2184 308.4280 0001594  52.9400 223.3541 15.73233593  1306,6727.799,91.531,350.737,348.592,0.0
53031.0,STARLINK-4137,PAYLOAD,2022-07-22 06:00:00,15.73179043,0.0001365,53.2187,306.7771,56.1596,309.0646,0.00032219,0.00044798,0.0,0 STARLINK-4137,1 53031U 22076AX  22203.25001157  .00044798  00000-0  32219-3 0  9991,2 53031  53.2187 306.7771 0001365  56.1596 309.0646 15.73179043  2817,6727.955,91.534,350.73800000000006,348.902,0.0
53031.0,STARLINK-4137,PAYLOAD,2022-07-22 12:00:00,15.73225057,0.0001388,53.2188,305.5416,48.3794,293.5326,-0.00061683,-0.00086397,0.0,0 STARLINK-4137,1 53031U 22076AX  22203.50001157 -.00086397  00000-0 -61683-3 0  9999,2 53031  53.2188 305.5416 0001388  48.3794 293.5326 15.73225057  2852,6727.824000000001,91.532,350.62300000000016,348.755,0.0
53031.0,STARLINK-4137,PAYLOAD,2022-07-22 22:00:00,15.73250148,0.000148,53.219,303.4797,42.1785,140.9125,-0.00056763,-0.00079704,0.0,0 STARLINK-4137,1 53031U 22076AX  22203.91667824 -.00079704  00000-0 -56763-3 0  9990,2 53031  53.2190 303.4797 0001480  42.1785 140.9125 15.73250148  2917,6727.752,91.53,350.61300000000006,348.621,0.0
53031.0,STARLINK-4137,PAYLOAD,2022-07-23 08:00:01,15.73235986,0.0001505,53.2192,301.4171,48.5086,335.7616,-0.00026006,-0.00037014,0.0,0 STARLINK-4137,1 53031U 22076AX  22204.33334491 -.00037014  00000-0 -26006-3 0  9993,2 53031  53.2192 301.4171 0001505  48.5086 335.7616 15.73235986  2984,6727.793000000002,91.531,350.67,348.645,0.0
